[{"OBJECT_NAME":"STARLINK-5940","OBJECT_ID":"2023-042AC","EPOCH":"2026-03-09T22:00:01.999584","MEAN_MOTION":15.10096632,"ECCENTRICITY":0.0001265,"INCLINATION":42.9997,"RA_OF_ASC_NODE":42.1442,"ARG_OF_PERICENTER":246.7627,"MEAN_ANOMALY":27.0311,"EPHEMERIS_TYPE":0,"CLASSIFICATION_TYPE":"U","NORAD_CAT_ID":56012,"ELEMENT_SET_NO":999,"REV_AT_EPOCH":577,"BSTAR":0.0035837787,"MEAN_MOTION_DOT":0.0005968,"MEAN_MOTION_DDOT":0},{"OBJECT_NAME":"OBJECT A","OBJECT_ID":"2024-095A","EPOCH":"2026-03-09T22:38:35.638656","MEAN_MOTION":15.12064324,"ECCENTRICITY":0.0003947,"INCLINATION":97.539,"RA_OF_ASC_NODE":149.317,"ARG_OF_PERICENTER":111.635,"MEAN_ANOMALY":248.5301,"EPHEMERIS_TYPE":0,"CLASSIFICATION_TYPE":"U","NORAD_CAT_ID":59810,"ELEMENT_SET_NO":999,"REV_AT_EPOCH":9915,"BSTAR":0.00038280559,"MEAN_MOTION_DOT":6.522e-5,"MEAN_MOTION_DDOT":0}]
